NORAD_CAT_ID,OBJECT_NAME,OBJECT_TYPE,EPOCH,MEAN_MOTION,ECCENTRICITY,INCLINATION,RA_OF_ASC_NODE,ARG_OF_PERICENTER,MEAN_ANOMALY,BSTAR,MEAN_MOTION_DOT,MEAN_MOTION_DDOT,TLE_LINE0,TLE_LINE1,TLE_LINE2,SEMIMAJOR_AXIS,PERIOD,APOGEE,PERIGEE,DECAYED
54078.0,STARLINK-5138,PAYLOAD,2023-06-06 07:34:57,15.08836706,0.0001036,53.2152,166.5134,87.5259,272.5852,1.429e-05,-6e-07,0.0,0 STARLINK-5138,1 54078U 22136AD  23157.31594863 -.00000060  00000-0  14290-4 0  9992,2 54078  53.2152 166.5134 0001036  87.5259 272.5852 15.08836706 35526,6917.89,95.438,540.472,539.039,0.0
54078.0,STARLINK-5138,PAYLOAD,2023-06-07 10:36:31,15.08840096,0.0001054,53.2154,161.4587,79.8672,280.2439,-8.6549e-06,-4.26e-06,0.0,0 STARLINK-5138,1 54078U 22136AD  23158.44202828 -.00000426  00000-0 -86549-5 0  9998,2 54078  53.2154 161.4587 0001054  79.8672 280.2439 15.08840096 35699,6917.88,95.438,540.474,539.016,0.0
54078.0,STARLINK-5138,PAYLOAD,2023-06-07 16:58:03,15.08837391,0.0001046,53.2156,160.269,78.4534,281.6576,9.3751e-06,-1.39e-06,0.0,0 STARLINK-5138,1 54078U 22136AD  23158.70698969 -.00000139  00000-0  93751-5 0  9995,2 54078  53.2156 160.2690 0001046  78.4534 281.6576 15.08837391 35259,6917.888,95.438,540.477,539.03,0.0
54078.0,STARLINK-5138,PAYLOAD,2023-06-08 07:16:32,15.088378,0.0001027,53.2151,157.5933,76.9463,283.1644,5.4398e-05,5.78e-06,0.0,0 STARLINK-5138,1 54078U 22136AD  23159.30314954  .00000578  00000-0  54398-4 0  9990,2 54078  53.2151 157.5933 0001027  76.9463 283.1644 15.08837800 35344,6917.887,95.438,540.463,539.042,0.0
54078.0,STARLINK-5138,PAYLOAD,2023-06-08 16:48:50,15.08837766,0.0001023,53.2151,155.8092,76.6239,283.4867,5.7135e-05,6.22e-06,0.0,0 STARLINK-5138,1 54078U 22136AD  23159.70059014  .00000622  00000-0  57135-4 0  9999,2 54078  53.2151 155.8092 0001023  76.6239 283.4867 15.08837766 35885,6917.887,95.438,540.46,539.045,0.0
54078.0,STARLINK-5138,PAYLOAD,2023-06-09 08:42:42,15.08840699,0.0001032,53.215,152.8352,77.5318,282.5789,6.1531e-05,6.92e-06,0.0,0 STARLINK-5138,1 54078U 22136AD  23160.36298890  .00000692  00000-0  61531-4 0  9992,2 54078  53.2150 152.8352 0001032  77.5318 282.5789 15.08840699 35509,6917.878,95.438,540.457,539.029,0.0
54078.0,STARLINK-5138,PAYLOAD,2023-06-09 16:39:38,15.08837464,0.0001038,53.2152,151.3484,80.147,279.964,3.3644e-05,2.48e-06,0.0,0 STARLINK-5138,1 54078U 22136AD  23160.69419190  .00000248  00000-0  33644-4 0  9997,2 54078  53.2152 151.3484 0001038  80.1470 279.9640 15.08837464 35553,6917.888,95.438,540.471,539.035,0.0
54078.0,STARLINK-5138,PAYLOAD,2023-06-10 05:22:43,15.08837355,0.0001073,53.2154,148.9697,81.0175,279.0938,2.3824e-05,9.1e-07,0.0,0 STARLINK-5138,1 54078U 22136AD  23161.22411356  .00000091  00000-0  23824-4 0  9998,2 54078  53.2154 148.9697 0001073  81.0175 279.0938 15.08837355 36117,6917.888,95.438,540.496,539.011,0.0
54078.0,STARLINK-5138,PAYLOAD,2023-06-11 05:13:30,15.08840196,0.0001134,53.2156,144.5091,80.3481,279.7639,3.3057e-05,2.38e-06,0.0,0 STARLINK-5138,1 54078U 22136AD  23162.21771222  .00000238  00000-0  33057-4 0  9991,2 54078  53.2156 144.5091 0001134  80.3481 279.7639 15.08840196 35783,6917.88,95.438,540.529,538.96,0.0
54078.0,STARLINK-5138,PAYLOAD,2023-06-11 16:21:12,15.08842643,0.0001152,53.2157,142.4276,80.1389,279.9733,6.1962e-05,6.98e-06,0.0,0 STARLINK-5138,1 54078U 22136AD  23162.68138896  .00000698  00000-0  61962-4 0  9992,2 54078  53.2157 142.4276 0001152  80.1389 279.9733 15.08842643 36339,6917.872,95.437,540.534,538.94,0.0
54078.0,STARLINK-5138,PAYLOAD,2023-06-11 22:42:44,15.08839898,0.0001178,53.2156,141.2388,79.04,281.0725,7.3324e-05,8.79e-06,0.0,0 STARLINK-5138,1 54078U 22136AD  23162.94635038  .00000879  00000-0  73324-4 0  9997,2 54078  53.2156 141.2388 0001178  79.0400 281.0725 15.08839898 35891,6917.881,95.438,540.561,538.931,0.0
54078.0,STARLINK-5138,PAYLOAD,2023-06-12 01:53:30,15.08840371,0.000118,53.2156,140.6441,78.89,281.2225,7.5097e-05,9.08e-06,0.0,0 STARLINK-5138,1 54078U 22136AD  23163.07883001  .00000908  00000-0  75097-4 0  9999,2 54078  53.2156 140.6441 0001180  78.8900 281.2225 15.08840371 35917,6917.879,95.438,540.561,538.928,0.0
54078.0,STARLINK-5138,PAYLOAD,2023-06-12 22:33:32,15.08838052,0.0001283,53.2165,136.7792,74.7915,285.3219,6.5753e-06,-1.83e-06,0.0,0 STARLINK-5138,1 54078U 22136AD  23163.93995422 -.00000183  00000-0  65753-5 0  9990,2 54078  53.2165 136.7792 0001283  74.7915 285.3219 15.08838052 36043,6917.886,95.438,540.639,538.864,0.0
54078.0,STARLINK-5138,PAYLOAD,2023-06-13 04:55:04,15.08838934,0.0001156,53.2159,135.5879,90.3608,269.7516,5.7601e-06,-1.96e-06,0.0,0 STARLINK-5138,1 54078U 22136AD  23164.20491264 -.00000196  00000-0  57601-5 0  9993,2 54078  53.2159 135.5879 0001156  90.3608 269.7516 15.08838934 36563,6917.884,95.438,540.548,538.949,0.0
54078.0,STARLINK-5138,PAYLOAD,2023-06-13 08:05:50,15.08838836,0.0001154,53.2159,134.9932,90.0208,270.0916,4.7852e-06,-2.12e-06,0.0,0 STARLINK-5138,1 54078U 22136AD  23164.33739274 -.00000212  00000-0  47852-5 0  9999,2 54078  53.2159 134.9932 0001154  90.0208 270.0916 15.08838836 36107,6917.884,95.438,540.547,538.951,0.0
54078.0,STARLINK-5138,PAYLOAD,2023-06-13 20:48:56,15.08837498,0.0001174,53.2162,132.6143,90.7168,269.3959,-1.627e-05,-5.47e-06,0.0,0 STARLINK-5138,1 54078U 22136AD  23164.86731487 -.00000547  00000-0 -16270-4 0  9996,2 54078  53.2162 132.6143 0001174  90.7168 269.3959 15.08837498 36183,6917.888,95.438,540.565,538.941,0.0
54078.0,STARLINK-5138,PAYLOAD,2023-06-14 06:21:14,15.08840558,0.0001201,53.2164,130.8307,92.2758,267.8371,1.2579e-05,-8.8e-07,0.0,0 STARLINK-5138,1 54078U 22136AD  23165.26475205 -.00000088  00000-0  12579-4 0  9991,2 54078  53.2164 130.8307 0001201  92.2758 267.8371 15.08840558 36722,6917.879,95.438,540.575,538.913,0.0
54078.0,STARLINK-5138,PAYLOAD,2023-06-15 03:01:16,15.08829433,0.0001161,53.2166,126.9652,91.2925,268.82,-9.3743e-06,-4.37e-06,0.0,0 STARLINK-5138,1 54078U 22136AD  23166.12588323 -.00000437  00000-0 -93743-5 0  9995,2 54078  53.2166 126.9652 0001161  91.2925 268.8200 15.08829433 36858,6917.913,95.438,540.581,538.975,0.0
54078.0,STARLINK-5138,PAYLOAD,2023-06-15 07:47:25,15.08830458,0.0001119,53.2163,126.0729,89.1553,270.9567,-3.4194e-06,-3.42e-06,0.0,0 STARLINK-5138,1 54078U 22136AD  23166.32460342 -.00000342  00000-0 -34194-5 0  9997,2 54078  53.2163 126.0729 0001119  89.1553 270.9567 15.08830458 36407,6917.91,95.438,540.549,539.0,0.0
54078.0,STARLINK-5138,PAYLOAD,2023-06-16 01:16:39,15.08840271,0.00011,53.2167,122.8017,88.3962,271.7156,4.3452e-05,4.04e-06,0.0,0 STARLINK-5138,1 54078U 22136AD  23167.05323772  .00000404  00000-0  43452-4 0  9996,2 54078  53.2167 122.8017 0001100  88.3962 271.7156 15.08840271 36991,6917.88,95.438,540.506,538.984,0.0
54078.0,STARLINK-5138,PAYLOAD,2023-06-16 06:02:48,15.08848354,0.0001137,53.2165,121.9098,89.0192,271.093,0.00011566,1.554e-05,0.0,0 STARLINK-5138,1 54078U 22136AD  23167.25195036  .00001554  00000-0  11566-3 0  9995,2 54078  53.2165 121.9098 0001137  89.0192 271.0930 15.08848354 37029,6917.855,95.437,540.506,538.933,0.0
54078.0,STARLINK-5138,PAYLOAD,2023-06-16 13:59:44,15.08844187,0.0001147,53.2164,120.4226,93.3393,266.773,5.0101e-05,5.1e-06,0.0,0 STARLINK-5138,1 54078U 22136AD  23167.58315398  .00000510  00000-0  50101-4 0  9996,2 54078  53.2164 120.4226 0001147  93.3393 266.7730 15.08844187 37071,6917.868,95.437,540.526,538.939,0.0
54078.0,STARLINK-5138,PAYLOAD,2023-06-17 04:18:12,15.08842537,0.0001157,53.2167,117.7464,89.8783,270.2342,0.00012348,1.678e-05,0.0,0 STARLINK-5138,1 54078U 22136AD  23168.17931266  .00001678  00000-0  12348-3 0  9996,2 54078  53.2167 117.7464 0001157  89.8783 270.2342 15.08842537 36683,6917.873,95.437,540.538,538.937,0.0
54078.0,STARLINK-5138,PAYLOAD,2023-06-17 13:50:32,15.08834684,0.0001255,53.2172,115.9626,80.4213,279.6921,-4.6923e-06,-3.63e-06,0.0,0 STARLINK-5138,1 54078U 22136AD  23168.57676305 -.00000363  00000-0 -46923-5 0  9990,2 54078  53.2172 115.9626 0001255  80.4213 279.6921 15.08834684 37224,6917.897,95.438,540.63,538.893,0.0
54078.0,STARLINK-5138,PAYLOAD,2023-06-18 05:44:24,15.0883202,0.0001201,53.2165,112.9858,95.0102,265.1027,-0.00012936,-2.346e-05,0.0,0 STARLINK-5138,1 54078U 22136AD  23169.23917171 -.00002346  00000-0 -12936-3 0  9991,2 54078  53.2165 112.9858 0001201  95.0102 265.1027 15.08832020 37320,6917.905,95.438,540.601,538.939,0.0
54078.0,STARLINK-5138,PAYLOAD,2023-06-18 13:41:19,15.08839445,0.0001293,53.2172,111.5022,87.1395,272.9746,-6.7008e-05,-1.354e-05,0.0,0 STARLINK-5138,1 54078U 22136AD  23169.57036666 -.00001354  00000-0 -67008-4 0  9998,2 54078  53.2172 111.5022 0001293  87.1395 272.9746 15.08839445 37370,6917.882,95.438,540.642,538.853,0.0
54078.0,STARLINK-5138,PAYLOAD,2023-06-19 05:35:09,15.08850082,0.0001103,53.2164,108.5274,100.5462,259.5655,5.9326e-05,6.57e-06,0.0,0 STARLINK-5138,1 54078U 22136AD  23170.23275382  .00000657  00000-0  59326-4 0  9990,2 54078  53.2164 108.5274 0001103 100.5462 259.5655 15.08850082 37472,6917.85,95.437,540.478,538.952,0.0
54078.0,STARLINK-5138,PAYLOAD,2023-06-19 13:32:05,15.08849681,0.0001082,53.2162,107.041,102.2008,257.9106,3.4011e-05,2.54e-06,0.0,0 STARLINK-5138,1 54078U 22136AD  23170.56395361  .00000254  00000-0  34011-4 0  9993,2 54078  53.2162 107.0410 0001082 102.2008 257.9106 15.08849681 37046,6917.851,95.437,540.464,538.967,0.0
54078.0,STARLINK-5138,PAYLOAD,2023-06-20 02:15:11,15.08834194,0.0001128,53.2164,104.6616,88.4139,271.6982,0.00014444,2.011e-05,0.0,0 STARLINK-5138,1 54078U 22136AD  23171.09388194  .00002011  00000-0  14444-3 0  9998,2 54078  53.2164 104.6616 0001128  88.4139 271.6982 15.08834194 37600,6917.898,95.438,540.543,538.983,0.0
54078.0,STARLINK-5138,PAYLOAD,2023-06-20 05:25:57,15.08837464,0.0001132,53.2166,104.0674,87.1089,273.0033,0.00011727,1.579e-05,0.0,0 STARLINK-5138,1 54078U 22136AD  23171.22636123  .00001579  00000-0  11727-3 0  9990,2 54078  53.2166 104.0674 0001132  87.1089 273.0033 15.08837464 37140,6917.888,95.438,540.536,538.97,0.0
